NORAD_CAT_ID,OBJECT_NAME,OBJECT_TYPE,EPOCH,MEAN_MOTION,ECCENTRICITY,INCLINATION,RA_OF_ASC_NODE,ARG_OF_PERICENTER,MEAN_ANOMALY,BSTAR,MEAN_MOTION_DOT,MEAN_MOTION_DDOT,TLE_LINE0,TLE_LINE1,TLE_LINE2,SEMIMAJOR_AXIS,PERIOD,APOGEE,PERIGEE,DECAYED
55965.0,STARLINK-5894,PAYLOAD,2023-03-22 18:00:00,15.95291633,0.0039735,69.9998,167.7428,162.2378,303.0015,-0.002275,-0.00973239,0.0002973,0 STARLINK-5894,1 55965U 23037BD  23081.75001157 -.00973239  29730-3 -22750-2 0  9992,2 55965  69.9998 167.7428 0039735 162.2378 303.0015 15.95291633  1303,6665.639,90.266,313.99,261.018,0.0
55965.0,STARLINK-5894,PAYLOAD,2023-03-22 22:00:00,15.9500062,0.0036808,69.9999,167.2561,162.3792,179.6324,-0.0025105,-0.01044155,0.00033751,0 STARLINK-5894,1 55965U 23037BD  23081.91667824 -.01044155  33751-3 -25105-2 0  9991,2 55965  69.9999 167.2561 0036808 162.3792 179.6324 15.95000620  1300,6666.45,90.282,312.853,263.777,0.0
55965.0,STARLINK-5894,PAYLOAD,2023-03-23 06:00:00,15.94315676,0.0034281,70.0002,166.2842,163.3863,291.6202,-0.0024625,-0.00978052,0.00029699,0 STARLINK-5894,1 55965U 23037BD  23082.25001157 -.00978052  29699-3 -24625-2 0  9993,2 55965  70.0002 166.2842 0034281 163.3863 291.6202 15.94315676  1378,6668.359,90.321,313.084,267.364,0.0
55965.0,STARLINK-5894,PAYLOAD,2023-03-23 14:00:01,15.93666336,0.0030085,69.9999,165.3134,164.235,43.0384,-0.0026068,-0.00986247,0.00029959,0 STARLINK-5894,1 55965U 23037BD  23082.58335648 -.00986247  29959-3 -26068-2 0  9991,2 55965  69.9999 165.3134 0030085 164.2350  43.0384 15.93666336  1307,6670.17,90.358,312.102,271.968,0.0
55965.0,STARLINK-5894,PAYLOAD,2023-03-24 17:00:11,15.91457802,0.0018308,69.9999,162.0424,173.7874,1.9878,-0.002966,-0.00972133,0.00028526,0 STARLINK-5894,1 55965U 23037BD  23083.70846065 -.00972133  28526-3 -29660-2 0  9995,2 55965  69.9999 162.0424 0018308 173.7874   1.9878 15.91457802  1601,6676.34,90.483,310.428,285.982,0.0
55965.0,STARLINK-5894,PAYLOAD,2023-03-24 22:00:01,15.91089078,0.0015896,69.9997,161.4379,177.6963,110.5463,-0.0032755,-0.01048751,0.00032702,0 STARLINK-5894,1 55965U 23037BD  23083.91668981 -.01048751  32702-3 -32755-2 0  9998,2 55965  69.9997 161.4379 0015896 177.6963 110.5463 15.91089078  1302,6677.371,90.504,309.85,288.622,0.0
55965.0,STARLINK-5894,PAYLOAD,2023-03-25 06:00:00,15.90422,0.0012441,70.0001,160.4719,186.7708,209.7003,-0.0033098,-0.01019866,0.00030852,0 STARLINK-5894,1 55965U 23037BD  23084.25001157 -.01019866  30852-3 -33098-2 0  9992,2 55965  70.0001 160.4719 0012441 186.7708 209.7003 15.90422000  1697,6679.238,90.542,309.413,292.793,0.0
55965.0,STARLINK-5894,PAYLOAD,2023-03-25 14:00:01,15.89748251,0.0010687,70.0001,159.5067,196.5343,307.452,-0.0032867,-0.0097731,0.00028325,0 STARLINK-5894,1 55965U 23037BD  23084.58334491 -.00977310  28325-3 -32867-2 0  9999,2 55965  70.0001 159.5067 0010687 196.5343 307.4520 15.89748251  1749,6681.125,90.58,310.13,295.85,0.0
55965.0,STARLINK-5894,PAYLOAD,2023-03-25 22:00:00,15.8912156,0.0008762,69.9998,158.5413,214.9046,35.7976,-0.0035763,-0.01028384,0.00030936,0 STARLINK-5894,1 55965U 23037BD  23084.91667824 -.01028384  30936-3 -35763-2 0  9993,2 55965  69.9998 158.5413 0008762 214.9046  35.7976 15.89121560  1790,6682.882,90.616,310.602,298.891,0.0
55965.0,STARLINK-5894,PAYLOAD,2023-03-26 06:00:00,15.88474555,0.0008455,69.9998,157.5783,236.5015,120.1417,-0.0037372,-0.01040227,0.00031402,0 STARLINK-5894,1 55965U 23037BD  23085.25001157 -.01040227  31402-3 -37372-2 0  9999,2 55965  69.9998 157.5783 0008455 236.5015 120.1417 15.88474555  1854,6684.696,90.653,312.213,300.909,0.0
55965.0,STARLINK-5894,PAYLOAD,2023-03-26 22:00:01,15.8714622,0.000913,69.9998,155.6537,266.6133,299.6439,-0.003813,-0.0090444,0.0,0 STARLINK-5894,1 55965U 23037BD  23085.91668981 -.00904440  00000-0 -38130-2 0  9991,2 55965  69.9998 155.6537 0009130 266.6133 299.6439 15.87146220  1957,6688.425,90.729,316.397,304.184,0.0
55965.0,STARLINK-5894,PAYLOAD,2023-03-27 14:00:01,15.85882208,0.0007563,69.9999,153.733,271.0006,141.5811,-0.0043446,-0.00960709,0.0,0 STARLINK-5894,1 55965U 23037BD  23086.58334491 -.00960709  00000-0 -43446-2 0  9997,2 55965  69.9999 153.7330 0007563 271.0006 141.5811 15.85882208  1304,6691.979,90.801,318.905,308.783,0.0
55965.0,STARLINK-5894,PAYLOAD,2023-03-27 22:00:00,15.8520104,0.0008347,69.9999,152.7735,270.9492,243.6779,-0.0042891,-0.00922253,0.0,0 STARLINK-5894,1 55965U 23037BD  23086.91667824 -.00922253  00000-0 -42891-2 0  9998,2 55965  69.9999 152.7735 0008347 270.9492 243.6779 15.85201040  2116,6693.896,90.84,321.348,310.173,0.0
55965.0,STARLINK-5894,PAYLOAD,2023-03-28 14:00:01,15.83877631,0.0003689,70.0001,150.8584,273.0326,83.317,-0.0044125,-0.00890047,0.0,0 STARLINK-5894,1 55965U 23037BD  23087.58334491 -.00890047  00000-0 -44125-2 0  9990,2 55965  70.0001 150.8584 0003689 273.0326  83.3170 15.83877631  1305,6697.624,90.916,321.96,317.018,0.0
55965.0,STARLINK-5894,PAYLOAD,2023-03-28 22:00:00,15.83213205,0.0008794,70.0,149.9019,272.6108,183.4292,-0.0044472,-0.00874377,0.0,0 STARLINK-5894,1 55965U 23037BD  23087.91667824 -.00874377  00000-0 -44472-2 0  9999,2 55965  70.0000 149.9019 0008794 272.6108 183.4292 15.83213205  1309,6699.498,90.954,327.254,315.471,0.0
55965.0,STARLINK-5894,PAYLOAD,2023-03-29 02:00:01,15.82907957,0.0009023,70.0,149.4245,270.1348,55.445,-0.0046822,-0.00904482,0.0,0 STARLINK-5894,1 55965U 23037BD  23088.08334491 -.00904482  00000-0 -46822-2 0  9991,2 55965  70.0000 149.4245 0009023 270.1348  55.4450 15.82907957  2308,6700.359,90.972,328.27,316.178,0.0
55965.0,STARLINK-5894,PAYLOAD,2023-03-29 14:00:01,15.81932044,0.0003595,70.0,147.9925,272.2868,20.7649,-0.0049344,-0.00906129,0.0,0 STARLINK-5894,1 55965U 23037BD  23088.58334491 -.00906129  00000-0 -49344-2 0  9998,2 55965  70.0000 147.9925 0003595 272.2868  20.7649 15.81932044  2381,6703.114,91.028,327.389,322.57,0.0
55965.0,STARLINK-5894,PAYLOAD,2023-03-29 22:00:00,15.81277017,0.000365,69.9999,147.0385,272.4507,117.9398,-0.0050613,-0.00901936,0.0,0 STARLINK-5894,1 55965U 23037BD  23088.91667824 -.00901936  00000-0 -50613-2 0  9996,2 55965  69.9999 147.0385 0003650 272.4507 117.9398 15.81277017  1303,6704.965,91.066,329.278,324.383,0.0
55965.0,STARLINK-5894,PAYLOAD,2023-03-30 16:00:00,15.79811406,0.0003681,69.9998,144.8968,275.8828,60.6562,-0.0054279,-0.00903818,0.0,0 STARLINK-5894,1 55965U 23037BD  23089.66667824 -.00903818  00000-0 -54279-2 0  9992,2 55965  69.9998 144.8968 0003681 275.8828  60.6562 15.79811406  2559,6709.112,91.15,333.446,328.507,0.0
55965.0,STARLINK-5894,PAYLOAD,2023-03-30 22:00:00,15.79322359,0.0003626,70.0001,144.1837,272.9175,44.7918,-0.005565,-0.0090591,0.0,0 STARLINK-5894,1 55965U 23037BD  23089.91667824 -.00905910  00000-0 -55650-2 0  9999,2 55965  70.0001 144.1837 0003626 272.9175  44.7918 15.79322359  1301,6710.496,91.178,334.795,329.928,0.0
55965.0,STARLINK-5894,PAYLOAD,2023-03-31 16:00:01,15.77853849,0.0003529,69.9998,142.0481,268.7318,349.912,-0.0059254,-0.00902816,0.0,0 STARLINK-5894,1 55965U 23037BD  23090.66668981 -.00902816  00000-0 -59254-2 0  9994,2 55965  69.9998 142.0481 0003529 268.7318 349.9120 15.77853849  2700,6714.659,91.263,338.894,334.155,0.0
55965.0,STARLINK-5894,PAYLOAD,2023-04-01 14:00:01,15.76055684,0.0007003,69.9997,139.4434,266.365,154.5651,-0.0063469,-0.00895466,0.0,0 STARLINK-5894,1 55965U 23037BD  23091.58334491 -.00895466  00000-0 -63469-2 0  9997,2 55965  69.9997 139.4434 0007003 266.3650 154.5651 15.76055684  1305,6719.766,91.367,346.337,336.925,0.0
55965.0,STARLINK-5894,PAYLOAD,2023-04-01 16:00:00,15.75892086,0.0007391,69.9996,139.2074,266.6931,266.8851,-0.0063885,-0.00895157,0.0,0 STARLINK-5894,1 55965U 23037BD  23091.66667824 -.00895157  00000-0 -63885-2 0  9994,2 55965  69.9996 139.2074 0007391 266.6931 266.8851 15.75892086  2862,6720.231,91.377,347.063,337.129,0.0
55965.0,STARLINK-5894,PAYLOAD,2023-04-01 22:00:00,15.75407688,0.0003659,70.0002,138.4978,253.5979,257.6278,-0.0065941,-0.00901458,0.0,0 STARLINK-5894,1 55965U 23037BD  23091.91667824 -.00901458  00000-0 -65941-2 0  9999,2 55965  70.0002 138.4978 0003659 253.5979 257.6278 15.75407688  1306,6721.608,91.405,345.933,341.014,0.0
55965.0,STARLINK-5894,PAYLOAD,2023-04-02 14:00:01,15.74097208,0.0008864,69.9999,136.6104,270.1081,59.3668,-0.0068758,-0.00892065,0.0,0 STARLINK-5894,1 55965U 23037BD  23092.58334491 -.00892065  00000-0 -68758-2 0  9996,2 55965  69.9999 136.6104 0008864 270.1081  59.3668 15.74097208  1303,6725.338,91.481,353.165,341.242,0.0
55965.0,STARLINK-5894,PAYLOAD,2023-04-02 16:00:00,15.73948433,0.0008442,69.9997,136.3749,271.2818,170.2494,-0.0071399,-0.00917278,0.0,0 STARLINK-5894,1 55965U 23037BD  23092.66667824 -.00917278  00000-0 -71399-2 0  9993,2 55965  69.9997 136.3749 0008442 271.2818 170.2494 15.73948433  3020,6725.762,91.49,353.305,341.949,0.0
55965.0,STARLINK-5894,PAYLOAD,2023-04-02 22:00:00,15.73457696,0.0005543,70.0003,135.6684,265.2963,152.1239,-0.007262,-0.0091191,0.0,0 STARLINK-5894,1 55965U 23037BD  23092.91667824 -.00911910  00000-0 -72620-2 0  9996,2 55965  70.0003 135.6684 0005543 265.2963 152.1239 15.73457696  1305,6727.161,91.518,352.754,345.297,0.0
55965.0,STARLINK-5894,PAYLOAD,2023-04-03 14:00:01,15.72153087,0.0003865,69.9947,133.7784,273.1885,317.7792,-0.0076304,-0.00905783,0.0,0 STARLINK-5894,1 55965U 23037BD  23093.58334491 -.00905783  00000-0 -76304-2 0  9995,2 55965  69.9947 133.7784 0003865 273.1885 317.7792 15.72153087  3160,6730.882,91.594,355.348,350.145,0.0
55965.0,STARLINK-5894,PAYLOAD,2023-04-03 22:00:00,15.7144775,0.0004179,69.9949,132.8384,269.6941,46.8969,-0.0070941,-0.00825398,0.0,0 STARLINK-5894,1 55965U 23037BD  23093.91667824 -.00825398  00000-0 -70941-2 0  9995,2 55965  69.9949 132.8384 0004179 269.6941  46.8969 15.71447750  1302,6732.896,91.635,357.574,351.947,0.0
